NORAD_CAT_ID,OBJECT_NAME,OBJECT_TYPE,EPOCH,MEAN_MOTION,ECCENTRICITY,INCLINATION,RA_OF_ASC_NODE,ARG_OF_PERICENTER,MEAN_ANOMALY,BSTAR,MEAN_MOTION_DOT,MEAN_MOTION_DDOT,TLE_LINE0,TLE_LINE1,TLE_LINE2,SEMIMAJOR_AXIS,PERIOD,APOGEE,PERIGEE,DECAYED
53250.0,STARLINK-4059,PAYLOAD,2023-04-04 00:12:39,15.08849669,8.93e-05,53.2168,320.5935,91.3608,268.7486,0.00020089,2.912e-05,0.0,0 STARLINK-4059,1 53250U 22086J   23094.00878856  .00002912  00000-0  20089-3 0  9999,2 53250  53.2168 320.5935 0000893  91.3608 268.7486 15.08849669 39443,6917.851,95.437,540.334,539.098,0.0
53250.0,STARLINK-4059,PAYLOAD,2023-04-04 20:52:40,15.0883888,7.64e-05,53.2161,316.7284,92.9917,267.1162,-5.0006e-06,-3.67e-06,0.0,0 STARLINK-4059,1 53250U 22086J   23094.86991081 -.00000367  00000-0 -50006-5 0  9997,2 53250  53.2161 316.7284 0000764  92.9917 267.1162 15.08838880 39376,6917.884,95.438,540.277,539.22,0.0
53250.0,STARLINK-4059,PAYLOAD,2023-04-05 08:00:22,15.08844213,7.99e-05,53.2173,314.6436,90.4739,269.6344,7.8116e-07,-2.75e-06,0.0,0 STARLINK-4059,1 53250U 22086J   23095.33358832 -.00000275  00000-0  78116-6 0  9991,2 53250  53.2173 314.6436 0000799  90.4739 269.6344 15.08844213 39644,6917.868,95.437,540.285,539.18,0.0
53250.0,STARLINK-4059,PAYLOAD,2023-04-05 20:43:27,15.08844857,7.97e-05,53.2164,312.2659,89.2085,270.8999,9.4886e-05,1.223e-05,0.0,0 STARLINK-4059,1 53250U 22086J   23095.86351067  .00001223  00000-0  94886-4 0  9995,2 53250  53.2164 312.2659 0000797  89.2085 270.8999 15.08844857 39726,6917.866,95.437,540.282,539.179,0.0
53250.0,STARLINK-4059,PAYLOAD,2023-04-05 23:54:13,15.08846514,8.21e-05,53.2165,311.6706,91.7283,268.3804,0.00012805,1.751e-05,0.0,0 STARLINK-4059,1 53250U 22086J   23095.99598970  .00001751  00000-0  12805-3 0  9991,2 53250  53.2165 311.6706 0000821  91.7283 268.3804 15.08846514 39548,6917.86,95.437,540.293,539.158,0.0
53250.0,STARLINK-4059,PAYLOAD,2023-04-06 14:12:41,15.08842659,6.67e-05,53.2147,308.9954,105.9374,254.1692,9.1781e-05,1.173e-05,0.0,0 STARLINK-4059,1 53250U 22086J   23096.59215193  .00001173  00000-0  91781-4 0  9990,2 53250  53.2147 308.9954 0000667 105.9374 254.1692 15.08842659 39835,6917.872,95.437,540.199,539.276,0.0
53250.0,STARLINK-4059,PAYLOAD,2023-04-07 14:03:29,15.08841472,8.29e-05,53.2143,304.5344,80.0027,280.1058,0.00011351,1.519e-05,0.0,0 STARLINK-4059,1 53250U 22086J   23097.58575360  .00001519  00000-0  11351-3 0  9993,2 53250  53.2143 304.5344 0000829  80.0027 280.1058 15.08841472 39987,6917.876,95.437,540.314,539.167,0.0
53250.0,STARLINK-4059,PAYLOAD,2023-04-07 23:35:47,15.08843235,8.11e-05,53.2144,302.7513,65.8731,294.2346,0.00010161,1.33e-05,0.0,0 STARLINK-4059,1 53250U 22086J   23097.98319236  .00001330  00000-0  10161-3 0  9994,2 53250  53.2144 302.7513 0000811  65.8731 294.2346 15.08843235 39840,6917.871,95.437,540.297,539.174,0.0
53250.0,STARLINK-4059,PAYLOAD,2023-04-08 20:15:49,15.08836726,0.0001211,53.22,298.8903,99.0283,261.0846,6.8178e-05,7.97e-06,0.0,0 STARLINK-4059,1 53250U 22086J   23098.84431849  .00000797  00000-0  68178-4 0  9993,2 53250  53.2200 298.8903 0001211  99.0283 261.0846 15.08836726 39975,6917.89,95.438,540.593,538.918,0.0
53250.0,STARLINK-4059,PAYLOAD,2023-04-09 05:48:07,15.0886194,8.27e-05,53.2166,297.1038,91.5401,268.5686,-0.0002492,-4.254e-05,0.0,0 STARLINK-4059,1 53250U 22086J   23099.24175781 -.00004254  00000-0 -24920-3 0  9998,2 53250  53.2166 297.1038 0000827  91.5401 268.5686 15.08861940 40037,6917.813,95.436,540.25,539.106,0.0
53250.0,STARLINK-4059,PAYLOAD,2023-04-09 20:06:35,15.08862958,6.34e-05,53.2164,294.4269,79.1198,280.9865,-0.00021765,-3.752e-05,0.0,0 STARLINK-4059,1 53250U 22086J   23099.83790745 -.00003752  00000-0 -21765-3 0  9992,2 53250  53.2164 294.4269 0000634  79.1198 280.9865 15.08862958 40321,6917.81,95.436,540.114,539.237,0.0
53250.0,STARLINK-4059,PAYLOAD,2023-04-10 05:38:55,15.08835199,0.000113,53.2156,292.6391,68.6906,291.4207,8.4305e-05,1.054e-05,0.0,0 STARLINK-4059,1 53250U 22086J   23100.23535971  .00001054  00000-0  84305-4 0  9998,2 53250  53.2156 292.6391 0001130  68.6906 291.4207 15.08835199 40188,6917.895,95.438,540.542,538.978,0.0
53250.0,STARLINK-4059,PAYLOAD,2023-04-10 12:00:27,15.08838891,0.0001022,53.2162,291.4498,80.3364,279.7743,0.0001084,1.438e-05,0.0,0 STARLINK-4059,1 53250U 22086J   23100.50031753  .00001438  00000-0  10840-3 0  9995,2 53250  53.2162 291.4498 0001022  80.3364 279.7743 15.08838891 40422,6917.884,95.438,540.456,539.042,0.0
53250.0,STARLINK-4059,PAYLOAD,2023-04-10 15:11:13,15.08839565,7.55e-05,53.2158,290.8568,86.7305,273.3773,6.4625e-05,7.41e-06,0.0,0 STARLINK-4059,1 53250U 22086J   23100.63279714  .00000741  00000-0  64625-4 0  9997,2 53250  53.2158 290.8568 0000755  86.7305 273.3773 15.08839565 40449,6917.882,95.438,540.269,539.224,0.0
53250.0,STARLINK-4059,PAYLOAD,2023-04-11 11:51:14,15.08838632,0.0001005,53.2162,286.9915,87.7282,272.3825,2.7438e-05,1.49e-06,0.0,0 STARLINK-4059,1 53250U 22086J   23101.49391854  .00000149  00000-0  27438-4 0  9995,2 53250  53.2162 286.9915 0001005  87.7282 272.3825 15.08838632 40373,6917.885,95.438,540.445,539.054,0.0
53250.0,STARLINK-4059,PAYLOAD,2023-04-12 11:42:01,15.08839947,0.0001075,53.2168,282.5319,86.8704,273.2412,0.00013294,1.829e-05,0.0,0 STARLINK-4059,1 53250U 22086J   23102.48751935  .00001829  00000-0  13294-3 0  9995,2 53250  53.2168 282.5319 0001075  86.8704 273.2412 15.08839947 40726,6917.881,95.438,540.489,539.002,0.0
53250.0,STARLINK-4059,PAYLOAD,2023-04-12 18:03:33,15.0884553,0.0001302,53.2158,281.3428,84.2163,275.8978,4.4899e-05,4.27e-06,0.0,0 STARLINK-4059,1 53250U 22086J   23102.75247634  .00000427  00000-0  44899-4 0  9990,2 53250  53.2158 281.3428 0001302  84.2163 275.8978 15.08845530 40569,6917.863,95.437,540.629,538.828,0.0
53250.0,STARLINK-4059,PAYLOAD,2023-04-13 05:11:16,15.08836256,0.0001522,53.2163,279.2613,69.8581,290.2574,8.3201e-05,1.036e-05,0.0,0 STARLINK-4059,1 53250U 22086J   23103.21616282  .00001036  00000-0  83201-4 0  9998,2 53250  53.2163 279.2613 0001522  69.8581 290.2574 15.08836256 40832,6917.892,95.438,540.81,538.704,0.0
53250.0,STARLINK-4059,PAYLOAD,2023-04-14 05:02:03,15.08844731,0.0001011,53.2144,274.7996,59.3694,300.7398,0.00013264,1.824e-05,0.0,0 STARLINK-4059,1 53250U 22086J   23104.20975781  .00001824  00000-0  13264-3 0  9996,2 53250  53.2144 274.7996 0001011  59.3694 300.7398 15.08844731 40789,6917.866,95.437,540.43,539.032,0.0
53250.0,STARLINK-4059,PAYLOAD,2023-04-14 11:23:35,15.08839402,0.0001209,53.2147,273.611,65.7718,294.34,3.4509e-05,2.61e-06,0.0,0 STARLINK-4059,1 53250U 22086J   23104.47472037  .00000261  00000-0  34509-4 0  9991,2 53250  53.2147 273.6110 0001209  65.7718 294.3400 15.08839402 41024,6917.882,95.438,540.584,538.911,0.0
53250.0,STARLINK-4059,PAYLOAD,2023-04-15 11:14:23,15.08838236,0.0001998,53.2196,269.1562,76.4742,283.6472,6.3094e-05,7.16e-06,0.0,0 STARLINK-4059,1 53250U 22086J   23105.46832332  .00000716  00000-0  63094-4 0  9995,2 53250  53.2196 269.1562 0001998  76.4742 283.6472 15.08838236 40977,6917.886,95.438,541.133,538.369,0.0
53250.0,STARLINK-4059,PAYLOAD,2023-04-15 20:46:41,15.08844425,0.0001379,53.2175,267.3681,92.3694,267.7456,0.00016467,2.334e-05,0.0,0 STARLINK-4059,1 53250U 22086J   23105.86575920  .00002334  00000-0  16467-3 0  9995,2 53250  53.2175 267.3681 0001379  92.3694 267.7456 15.08844425 41234,6917.867,95.437,540.686,538.778,0.0
53250.0,STARLINK-4059,PAYLOAD,2023-04-16 12:40:33,15.08839963,9.47e-05,53.2153,264.3901,95.3519,264.7581,8.4947e-05,1.064e-05,0.0,0 STARLINK-4059,1 53250U 22086J   23106.52816316  .00001064  00000-0  84947-4 0  9994,2 53250  53.2153 264.3901 0000947  95.3519 264.7581 15.08839963 41137,6917.881,95.438,540.401,539.09,0.0
53250.0,STARLINK-4059,PAYLOAD,2023-04-16 20:37:28,15.08860897,0.0001223,53.218,262.9067,96.6396,263.4736,0.00049575,7.615e-05,0.0,0 STARLINK-4059,1 53250U 22086J   23106.85935332  .00007615  00000-0  49575-3 0  9995,2 53250  53.2180 262.9067 0001223  96.6396 263.4736 15.08860897 41384,6917.817,95.436,540.528,538.835,0.0
53250.0,STARLINK-4059,PAYLOAD,2023-04-17 14:06:43,15.08835697,0.0001514,53.2184,259.6392,106.4593,253.6565,-5.7746e-05,-1.207e-05,0.0,0 STARLINK-4059,1 53250U 22086J   23107.58800189 -.00001207  00000-0 -57746-4 0  9990,2 53250  53.2184 259.6392 0001514 106.4593 253.6565 15.08835697 41497,6917.894,95.438,540.806,538.711,0.0
53250.0,STARLINK-4059,PAYLOAD,2023-04-17 18:52:52,15.08840411,0.0001518,53.2174,258.7457,99.6608,260.4556,5.8711e-05,6.47e-06,0.0,0 STARLINK-4059,1 53250U 22086J   23107.78672171  .00000647  00000-0  58711-4 0  9998,2 53250  53.2174 258.7457 0001518  99.6608 260.4556 15.08840411 41320,6917.879,95.438,540.794,538.694,0.0
53250.0,STARLINK-4059,PAYLOAD,2023-04-17 20:28:15,15.08842671,0.0001428,53.2168,258.4444,92.1911,267.9244,0.0001159,1.557e-05,0.0,0 STARLINK-4059,1 53250U 22086J   23107.85296105  .00001557  00000-0  11590-3 0  9999,2 53250  53.2168 258.4444 0001428  92.1911 267.9244 15.08842671 41530,6917.872,95.437,540.725,538.749,0.0
53250.0,STARLINK-4059,PAYLOAD,2023-04-18 02:49:48,15.08837548,5.86e-05,53.2162,257.2561,128.6354,231.4691,2.6251e-05,1.3e-06,0.0,0 STARLINK-4059,1 53250U 22086J   23108.11791941  .00000130  00000-0  26251-4 0  9994,2 53250  53.2162 257.2561 0000586 128.6354 231.4691 15.08837548 41574,6917.888,95.438,540.158,539.347,0.0
53250.0,STARLINK-4059,PAYLOAD,2023-04-18 18:43:40,15.0884677,0.0001353,53.2163,254.2808,94.7583,265.3564,0.00060202,9.308e-05,0.0,0 STARLINK-4059,1 53250U 22086J   23108.78032428  .00009308  00000-0  60202-3 0  9994,2 53250  53.2163 254.2808 0001353  94.7583 265.3564 15.08846770 41679,6917.86,95.437,540.661,538.789,0.0
53250.0,STARLINK-4059,PAYLOAD,2023-04-18 21:54:26,15.08860525,0.0001244,53.2153,253.6848,90.5979,269.5156,0.0012025,0.00018912,0.0,0 STARLINK-4059,1 53250U 22086J   23108.91280178  .00018912  00000-0  12025-2 0  9996,2 53250  53.2153 253.6848 0001244  90.5979 269.5156 15.08860525 41494,6917.818,95.436,540.543,538.822,0.0
